[{"OBJECT_NAME":"APRIZESAT 2","OBJECT_ID":"2004-025A","EPOCH":"2026-03-09T10:28:26.148000","MEAN_MOTION":14.37988294,"ECCENTRICITY":0.01054712,"INCLINATION":98.091,"RA_OF_ASC_NODE":240.1116,"ARG_OF_PERICENTER":190.5785,"MEAN_ANOMALY":169.3185,"EPHEMERIS_TYPE":0,"CLASSIFICATION_TYPE":"U","NORAD_CAT_ID":28366,"ELEMENT_SET_NO":999,"REV_AT_EPOCH":13730,"BSTAR":0.00014374466,"MEAN_MOTION_DOT":4.21e-6,"MEAN_MOTION_DDOT":0},{"OBJECT_NAME":"COSMOS 2251 DEB","OBJECT_ID":"1993-036HK","EPOCH":"2026-03-09T22:27:46.252800","MEAN_MOTION":14.35507774,"ECCENTRICITY":0.00213965,"INCLINATION":74.0471,"RA_OF_ASC_NODE":156.1658,"ARG_OF_PERICENTER":193.2337,"MEAN_ANOMALY":287.1374,"EPHEMERIS_TYPE":0,"CLASSIFICATION_TYPE":"U","NORAD_CAT_ID":34024,"ELEMENT_SET_NO":999,"REV_AT_EPOCH":89275,"BSTAR":0.00020246588,"MEAN_MOTION_DOT":5.58e-6,"MEAN_MOTION_DDOT":0}]
